RISAT-2BR2              
1 46905U 20081A   26068.52426450  .00004901  00000+0  37609-3 0  9996
2 46905  36.8980  95.9121 0010905  52.9142 307.2595 15.01602463292489
STARLINK-34919          
1 65802U 25218M   26068.57553545  .00010802  00000+0  75128-3 0  9996
2 65802  97.6023 292.8584 0001302  75.5084 284.6287 15.05670616 24957
